{"spkid": "20877685", "covariance": {"epoch": "2458038.5", "elements": [{"label": "e", "name": "e", "sigma": 9.72077905288297e-08, "units": null, "value": ".1813560921410127", "title": "eccentricity"}, {"label": "q", "sigma": 8.74509402898066e-08, "name": "q", "units": "au", "title": "perihelion distance", "value": ".7518707666596047"}, {"label": "tp", "title": "time of perihelion passage", "value": "2458182.221241044741", "units": "TDB", "name": "tp", "sigma": 1.85033751266005e-05}, {"units": "deg", "value": "224.1043379306163", "title": "longitude of the ascending node", "name": "om", "sigma": 1.26777205007701e-05, "label": "node"}, {"name": "w", "sigma": 2.26709517451982e-05, "value": "310.2066794849189", "title": "argument of perihelion", "units": "deg", "label": "peri"}, {"label": "i", "name": "i", "sigma": 2.04478457340554e-05, "title": "inclination", "value": "19.19281737495934", "units": "deg"}], "data": [["9.449354539496829E-15", "-8.49939017546936E-15", "-5.33663575616998E-13", "-4.9874642307631E-13", "-4.699424042263193E-13", "1.140132299761363E-12"], ["-8.49939017546936E-15", "7.647666957571313E-15", "4.747248243319228E-13", "4.583714353727336E-13", "4.02778593020999E-13", "-1.02020966288667E-12"], ["-5.33663575616998E-13", "4.747248243319228E-13", "3.423748910756976E-10", "-8.205018582956077E-11", "3.681374384536873E-10", "-2.857731410936288E-11"], ["-4.9874642307631E-13", "4.583714353727336E-13", "-8.205018582956077E-11", "1.607245970956462E-10", "-1.844749530270137E-10", "-7.991285720245494E-11"], ["-4.699424042263193E-13", "4.02778593020999E-13", "3.681374384536873E-10", "-1.844749530270137E-10", "5.13972053033105E-10", "-5.187373986947441E-11"], ["1.140132299761363E-12", "-1.02020966288667E-12", "-2.857731410936288E-11", "-7.991285720245494E-11", "-5.187373986947441E-11", "4.181143951637271E-10"]], "labels": ["e", "q", "tp", "node", "peri", "i"]}, "elements": [{"sigma": "9.7599E-8", "name": "e", "units": null, "title": "eccentricity", "value": ".1812629336173006", "label": "e"}, {"label": "a", "sigma": "2.8402E-9", "name": "a", "units": "au", "title": "semi-major axis", "value": ".918366425440164"}, {"label": "q", "units": "au", "title": "perihelion distance", "value": ".7519006330292459", "sigma": "8.8176E-8", "name": "q"}, {"title": "inclination; angle with respect to x-y ecliptic plane", "value": "19.19609940879209", "units": "deg", "name": "i", "sigma": "2.0443E-5", "label": "i"}, {"label": "node", "title": "longitude of the ascending node", "value": "224.0523482850716", "units": "deg", "name": "om", "sigma": "1.2665E-5"}, {"sigma": "2.2764E-5", "name": "w", "units": "deg", "title": "argument of perihelion", "value": "310.321782778259", "label": "peri"}, {"label": "M", "units": "deg", "value": "139.941754081029", "title": "mean anomaly", "sigma": "2.3549E-5", "name": "ma"}, {"label": "tp", "units": "TDB", "title": "time of perihelion passage", "value": "2461075.541087692428", "name": "tp", "sigma": "2.0694E-5"}, {"title": "sidereal orbital period", "value": "321.4566569222687", "units": "d", "sigma": "1.4913E-6", "name": "per", "label": "period"}, {"name": "n", "sigma": "5.1953E-9", "units": "deg/d", "value": "1.119902146207697", "title": "mean motion", "label": "n"}, {"label": "Q", "units": "au", "title": "aphelion distance", "value": "1.084832217851082", "name": "ad", "sigma": "3.3551E-9"}], "epoch": "2461200.5"}